format  = 'OEF2.0'       ! file format
rectype = 'ML'           ! record type (1L/ML)
refsys  = ECLM J2000     ! default reference system
END_OF_HEADER
2000NB21
! Equinoctial elements: a, e*sin(LP), e*cos(LP), tan(i/2)*sin(LN), tan(i/2)*cos(LN), mean long.
 EQU   2.6681596720149852E+00  -0.042492802958633   0.186629855995678    0.116356913020283   -0.098423683072827  30.7827246940098
 MJD     60000.000000000 TDT
 MAG  15.429  0.150
! Non-grav parameters: model used, actual number in use, dimension
 LSP   0  0    6
! RMS    9.76085E-09   2.30348E-08   3.08277E-08   2.03062E-08   2.75031E-08   2.44091E-06
! EIG   7.40779E-09   1.66363E-08   1.83443E-08   2.69295E-08   2.90944E-08   4.81670E-08
! WEA   0.12088  -0.34536  -0.35220   0.08559   0.14732  -0.84442
 COV   9.527413656851137E-17 -6.960317169270185E-17 -1.052051773406417E-16
 COV   7.716551713943668E-18 -1.822465186166847E-18 -1.407585975784849E-14
 COV   5.306013011987891E-16  2.937064828635596E-16 -2.952512210851501E-17
 COV  -5.085368011053394E-17  3.366307808318608E-14  9.503465511176415E-16
 COV  -4.640279637672399E-17 -2.908827136884766E-17  2.442691688330170E-14
 COV   4.123405573242153E-16  1.787647953412793E-16 -7.427424783688461E-15
 COV   7.564196684061451E-16 -1.271978497452060E-14  5.958019698811015E-12
 NOR   1.759763335053674E+16 -1.100134216736364E+15  1.169312124654739E+15
 NOR   2.206246431593116E+14  7.145574292297148E+14  4.479688493143120E+13
 NOR   3.282786474046994E+15 -6.621879185602045E+14 -1.155875883760528E+14
 NOR  -9.591491393286138E+13 -1.878096481118768E+13  1.364558387454759E+15
 NOR   1.011627513984279E+14  4.438062120538815E+12  1.045017138714578E+12
 NOR   2.736994915633486E+15 -6.016342318073370E+14  2.887131648763861E+12
 NOR   1.539496029401147E+15  4.748533928144692E+12  3.892396482250120E+11
2000NB21
! Keplerian elements: a, e, i, long. node, arg. peric., mean anomaly
 KEP   2.6681596720149852E+00 0.191406221038525  17.3305482731159 130.2271266261777 216.9461526270331  43.6094454407990
 MJD     60000.000000000 TDT
 MAG  15.429  0.150
! Non-grav parameters: model used, actual number in use, dimension
 LSP   0  0    6
! RMS    9.76085E-09   2.83285E-08   2.18183E-06   1.05615E-05   1.25310E-05   6.62214E-06
! EIG   7.28354E-09   2.23631E-08   2.47595E-08   3.68264E-08   1.40250E-07   2.74455E-07
! WEA   0.00509  -0.01860   0.03289   0.59698  -0.78195   0.17525
 COV   9.527413656851137E-17 -8.712774927881375E-17  7.916040434297286E-16
 COV  -1.350448203144118E-15 -2.595611421284619E-14  1.323070265814182E-14
 COV   8.025058343774086E-16 -2.073356813912254E-15  1.429439456320136E-14
 COV   9.215586087760871E-14 -9.010620236142026E-14  4.760393846480865E-12
 COV   5.894949385707365E-12 -5.682127695870710E-12  7.207245814976813E-14
 COV   1.115462493273926E-10 -1.038899465388949E-10 -2.201893356414651E-12
 COV   1.570255699176946E-10 -4.714145627517749E-11  4.385279279469782E-11
 NOR   1.759763335053674E+16  1.384366393633622E+15 -2.616563649532291E+12
 NOR   4.025049548448946E+13  4.208061957894051E+13  4.479688493143120E+13
 NOR   1.745777955926132E+15  6.996563987253083E+11  1.541591060173098E+12
 NOR   1.807145172709630E+12  5.188374911838729E+12  2.257115394322391E+11
 NOR  -1.962764571587127E+10 -7.973259380047103E+09 -7.700633150538754E+09
 NOR   2.841342623740507E+11  2.873634375949473E+11  3.142363937625206E+11
 NOR   3.008207044188177E+11  3.288393346204492E+11  3.892396482250120E+11
2000NB21
! Cartesian position and velocity vectors
 CAR   1.47268422919719E+00  1.70267359138311E+00 -6.93999737194115E-01 -7.61202479667108E-03  9.07622837131672E-03 -1.55698630973839E-05
 MJD     60000.000000000 TDT
 MAG  15.429  0.150
! Non-grav parameters: model used, actual number in use, dimension
 LSP   0  0    6
! RMS    1.47028E-07   8.95202E-08   9.55445E-08   6.01735E-10   3.48757E-10   6.40376E-10
! EIG   1.31485E-11   1.76498E-10   5.83175E-10   6.59680E-08   9.54162E-08   1.59074E-07
! WEA   0.90060  -0.40892  -0.14727   0.00346   0.00115  -0.00091
 COV   2.161735260266961E-14 -7.508858376646382E-15 -1.696225402220986E-15
 COV   8.399001905190119E-17  2.180084906193566E-17 -1.365236691194765E-17
 COV   8.013861780390632E-15  2.089842110332172E-15 -2.588296433643882E-17
 COV  -2.528696414694245E-17  1.607528562097309E-17  9.128747686404043E-15
 COV  -8.828651927672690E-18  5.446863336378473E-18  2.755262953429988E-17
 COV   3.620850808469042E-19  9.761400110939305E-20  1.075883778553631E-20
 COV   1.216313479065224E-19  3.704395484145772E-20  4.100807990349131E-19
 NOR   4.690932932494340E+16  5.250004179825595E+16 -2.160970715677665E+16
 NOR  -1.095476643082217E+19  1.222387091360336E+19  1.387884952993757E+17
 NOR   5.982374633105073E+16 -2.442246491993652E+16 -1.225359677528462E+19
 NOR   1.392225846067491E+19  1.074619903627916E+17  1.015703968901320E+16
 NOR   5.051340763390474E+18 -5.693792303107312E+18 -6.268197512483843E+16
 NOR   2.562119657072090E+21 -2.856380149461641E+21 -3.294461957061908E+19
 NOR   3.251392938760726E+21  2.498609307217931E+19  5.665285064554733E+18
2000NB21
! Cometary elements: q, e, i, long. node, arg. peric., pericenter time
 COM   2.15745731206721E+00  0.191406221038525   17.3305482731159  130.2271266261777  216.9461526270331   59807.1612917315
 MJD     60000.000000000 TDT
 MAG  15.429  0.150
! Non-grav parameters: model used, actual number in use, dimension
 LSP   0  0    6
! RMS    7.84305E-08   2.83285E-08   2.18183E-06   1.05615E-05   1.25310E-05   2.95176E-05
! EIG   2.21153E-09   2.62551E-08   3.67863E-08   7.25390E-08   2.56073E-07   2.95179E-05
! WEA   0.00131  -0.00047   0.00001  -0.00020  -0.00423  -0.99999
 COV   6.151341360770397E-15 -2.211664659884302E-15  6.172133141496180E-15
 COV  -3.923169112527616E-14 -2.668745040119800E-13 -1.143976122253380E-12
 COV   8.025058343774086E-16 -2.073356813912254E-15  1.429439456320136E-14
 COV   9.215586087760871E-14  4.078905714000364E-13  4.760393846480865E-12
 COV   5.894949385707365E-12 -5.682127695870710E-12 -4.045193222916836E-13
 COV   1.115462493273926E-10 -1.038899465388949E-10  9.883061882176609E-12
 COV   1.570255699176946E-10  2.112710074637840E-10  8.712861375525088E-10
 NOR   2.391325476554111E+16  6.535913690424688E+16 -3.002459914666244E+12
 NOR   4.025073221179034E+13  4.207131241641331E+13 -9.859730874312289E+12
 NOR   1.802827255981697E+17 -7.311386062428718E+12  1.089369715167467E+14
 NOR   1.140601243109270E+14 -2.748065961178941E+13  2.257115394322391E+11
 NOR  -1.962764571587128E+10 -7.973259380047113E+09  1.741457118507550E+09
 NOR   2.841342623740509E+11  2.873634375949476E+11 -7.106288458548334E+10
 NOR   3.008207044188181E+11 -7.436526178110461E+10  1.990626457561357E+10
2000NB21
! Cometary elements: q, e, i, long. node, arg. peric., true anomaly
 COT   2.15745731206721E+00  0.191406221038525   17.3305482731159  130.2271266261777  216.9461526270331   61.5707143436432
 MJD     60000.000000000 TDT
 MAG  15.429  0.150
! Non-grav parameters: model used, actual number in use, dimension
 LSP   0  0    6
! RMS    7.84305E-08   2.83285E-08   2.18183E-06   1.05615E-05   1.25310E-05   7.36916E-06
! EIG   2.20348E-09   2.07008E-08   3.67530E-08   8.52926E-08   1.47787E-07   2.75423E-07
! WEA   0.05067  -0.01746   0.03237   0.58927  -0.78147   0.19532
 COV   6.151341360770397E-15 -2.211664659884302E-15  6.172133141496180E-15
 COV  -3.923169112527616E-14 -2.668745040119800E-13  7.429034566957828E-14
 COV   8.025058343774086E-16 -2.073356813912254E-15  1.429439456320136E-14
 COV   9.215586087760871E-14 -2.568263350966226E-14  4.760393846480865E-12
 COV   5.894949385707365E-12 -5.682127695870710E-12 -1.360176821063925E-13
 COV   1.115462493273926E-10 -1.038899465388949E-10 -1.209029376170522E-12
 COV   1.570255699176946E-10 -4.927695211070814E-11  5.430457316532928E-11
 NOR   2.691494356103108E+16  6.871309514826415E+16 -3.235943334727234E+12
 NOR   4.977838876794911E+13  5.204173056214592E+13  4.400023595403306E+13
 NOR   1.788468398234693E+17 -7.265450977286084E+12  1.070625184399384E+14
 NOR   1.120985631589088E+14  9.466729926860886E+13  2.257115394322391E+11
 NOR  -1.962764571587126E+10 -7.973259380047094E+09 -6.115951326806456E+09
 NOR   2.841342623740504E+11  2.873634375949471E+11  2.495709705673108E+11
 NOR   3.008207044188175E+11  2.611688319079820E+11  2.455230345587298E+11
! EPH =   JPLDE441
